SCD 1                   
1 22490U 93009B   25110.93093882  .00000631  00000+0  12237-3 0  9996
2 22490  24.9700 294.1522 0042098 350.1188 141.0085 14.45823236700335
TECHSAT 1B (GO-32)      
1 25397U 98043D   25110.88535403  .00000192  00000+0  10325-3 0  9990
2 25397  98.9675  88.9769 0001608  34.7831 325.3452 14.24298138391212
SCD 2                   
1 25504U 98060A   25109.45050897  .00000638  00000+0  12776-3 0  9996
2 25504  24.9938 164.8111 0016663 326.9869 160.9171 14.45264449398952
DLR-TUBSAT              
1 25757U 99029B   25110.90189629  .00000253  00000+0  74044-4 0  9990
2 25757  98.6324  88.4728 0013978 189.8067 170.2857 14.52248869371958
TERRA                   
1 25994U 99068A   25111.17562649  .00000908  00000+0  19578-3 0  9990
2 25994  98.0026 171.0647 0003636 111.1489 332.9537 14.60636973348119
MAROC-TUBSAT            
1 27004U 01056D   25110.45189160  .00000002  00000+0  54940-4 0  9995
2 27004  99.7725 274.9977 0020336 144.1520 279.6580 13.70239579168299
AQUA                    
1 27424U 02022A   25111.18042603  .00001987  00000+0  41360-3 0  9990
2 27424  98.3735  68.8344 0001092 108.6158  21.3023 14.61159323221663
IRS-P6 (RESOURCESAT-1)  
1 28051U 03046A   25111.19975554  .00000298  00000+0  11403-3 0  9994
2 28051  98.2462 162.0670 0064879 166.5064 235.1411 14.35946995119994
SHIYAN-1 (SY-1)         
1 28220U 04012A   25110.71993759  .00014036  00000+0  61703-3 0  9993
2 28220  97.9225 159.1397 0008591  66.6883 293.5255 15.21989343146608
AURA                    
1 28376U 04026A   25110.92323706  .00001806  00000+0  38371-3 0  9998
2 28376  98.2902  60.6449 0001349  92.2755 267.8599 14.60299671104561
IRS-P5 (CARTOSAT-1)     
1 28649U 05017A   25111.14950967  .00002480  00000+0  26615-3 0  9999
2 28649  97.5724 147.7685 0002269  68.4646 291.6814 14.89455022 81039
SINAH 1                 
1 28893U 05043D   25110.30584209  .00000995  00000+0  20042-3 0  9995
2 28893  98.2287 238.7418 0015164 156.8567 203.3321 14.63652343 38659
EROS B                  
1 29079U 06014A   25111.21001280  .00048120  00000+0  13864-2 0  9990
2 29079  97.3396 224.3413 0007075 220.8037 139.2678 15.35561516 54403
RESURS-DK 1             
1 29228U 06021A   25110.67929891  .00004068  00000+0  25151-3 0  9996
2 29228  69.9362 351.1039 0007905 257.7331 102.2949 15.10651507 38718
ARIRANG-2 (KOMPSAT-2)   
1 29268U 06031A   25111.18776179  .00000745  00000+0  14985-3 0  9998
2 29268  97.8409 311.0278 0013950 337.5584 139.7570 14.64243475999808
LAPAN-TUBSAT            
1 29709U 07001A   25111.15119393  .00001356  00000+0  16443-3 0  9992
2 29709  98.1076  96.7788 0013627 116.3685 243.8929 14.85242125988505
HAIYANG-1B              
1 31113U 07010A   25110.94516122  .00000229  00000+0  10300-3 0  9995
2 31113  98.3134 105.2199 0013962  18.8000 341.3697 14.30873499940244
COSMO-SKYMED 1          
1 31598U 07023A   25111.18166094  .00001167  00000+0  14790-3 0  9991
2 31598  97.8877 295.9230 0001485  79.5939 280.5442 14.83633656966814
TERRASAR-X              
1 31698U 07026A   25110.51500160  .00002139  00000+0  10505-3 0  9997
2 31698  97.4451 119.2597 0001867  83.5476 276.5971 15.19144870989056
WORLDVIEW-1 (WV-1)      
1 32060U 07041A   25110.28403078  .00014634  00000+0  60190-3 0  9990
2 32060  97.3857 231.2309 0003544 277.5060  82.5774 15.24249374978508
YAOGAN-3                
1 32289U 07055A   25111.16397207  .00004241  00000+0  46219-3 0  9991
2 32289  97.8581 139.7885 0001798  85.8976 274.2446 14.88504150943093
COSMO-SKYMED 2          
1 32376U 07059A   25111.15278909  .00001090  00000+0  14344-3 0  9991
2 32376  97.8877 295.8803 0001290  87.1015 273.0346 14.82143434939569
RADARSAT-2              
1 32382U 07061A   25111.18347829  .00000174  00000+0  84345-4 0  9993
2 32382  98.5802 119.1341 0001278  88.3724 271.7604 14.29984194905756
CARTOSAT-2A             
1 32783U 08021A   25111.19647929  .00001529  00000+0  21496-3 0  9992
2 32783  97.8199 167.9667 0011938  47.7153 312.5068 14.78719478916523
HUANJING 1A (HJ-1A)     
1 33320U 08041A   25111.20465029  .00003036  00000+0  38293-3 0  9991
2 33320  97.6409 109.6910 0021274  84.2960 276.0679 14.82493344895954
HUANJING 1B (HJ-1B)     
1 33321U 08041B   25111.22012503  .00002122  00000+0  26980-3 0  9994
2 33321  97.6302 113.9324 0038551 126.2955 234.1829 14.82095072895971
GEOEYE 1                
1 33331U 08042A   25110.90808601  .00001018  00000+0  20029-3 0  9993
2 33331  98.1133 185.2120 0002914 314.6421  45.4544 14.64663548888339
THEOS                   
1 33396U 08049A   25111.13935461  .00000118  00000+0  75404-4 0  9990
2 33396  98.6130 175.7470 0001260  88.4307 271.7014 14.20094907858080
COSMO-SKYMED 3          
1 33412U 08054A   25111.15641652  .00005888  00000+0  44128-3 0  9990
2 33412  97.8768 317.6578 0015004 248.9427 111.0194 15.02993296893466
YAOGAN-4                
1 33446U 08061A   25110.87018155  .00002175  00000+0  28106-3 0  9993
2 33446  97.9023  43.7576 0015037  12.2911 347.8666 14.81885324883098
GOSAT (IBUKI)           
1 33492U 09002A   25110.75204596  .00001623  00000+0  29446-3 0  9998
2 33492  98.0565 222.9054 0000770  76.6625 283.4665 14.67571076869502
YAOGAN-6                
1 34839U 09021A   25110.84496631  .00152258  10219-4  55782-3 0  9999
2 34839  97.1987  89.2483 0011544 110.7009 249.5502 15.88254496891475
DEIMOS-1                
1 35681U 09041A   25111.13448767  .00001265  00000+0  19735-3 0  9998
2 35681  97.6972 283.0857 0002702 103.4925 256.6585 14.74510015844677
DUBAISAT-1              
1 35682U 09041B   25111.19644865  .00002339  00000+0  36469-3 0  9998
2 35682  97.9466 245.9770 0010305 352.6531   7.4524 14.73809222842975
OCEANSAT-2              
1 35931U 09051A   25111.13463259  .00000420  00000+0  31324-3 0  9990
2 35931  98.2279 135.5302 0016118 355.0008   5.0995 13.99581604820292
WORLDVIEW-2 (WV-2)      
1 35946U 09055A   25110.89470560  .00000283  00000+0  10971-3 0  9997
2 35946  98.4805 185.2991 0004998  57.3615 302.8053 14.37173451814971
SMOS                    
1 36036U 09059A   25110.93036358  .00000557  00000+0  19165-3 0  9998
2 36036  98.4438 299.4092 0001347  93.7514 266.3828 14.39734385812693
YAOGAN-7                
1 36110U 09069A   25111.22647872  .00001167  00000+0  17109-3 0  9998
2 36110  98.0626 353.4928 0024062 321.3738  38.5750 14.77342907827356
TANDEM-X                
1 36605U 10030A   25110.44913249  .00002447  00000+0  11970-3 0  9996
2 36605  97.4459 119.1945 0001931  94.2070 265.9386 15.19143321822467
CARTOSAT-2B             
1 36795U 10035A   25111.16443864  .00001521  00000+0  21358-3 0  9995
2 36795  97.8137 167.3451 0013165 119.4119 240.8409 14.78776165797569
YAOGAN-10               
1 36834U 10038A   25111.23766413  .00001381  00000+0  17194-3 0  9995
2 36834  97.9299 132.6138 0001676  88.6213 337.0268 14.84109711794671
COSMO-SKYMED 4          
1 37216U 10060A   25111.16545569  .00001082  00000+0  14244-3 0  9995
2 37216  97.8875 295.8969 0001418  85.8884 274.2491 14.82160141782114
RESOURCESAT-2           
1 37387U 11015A   25111.21835686  .00000448  00000+0  22086-3 0  9991
2 37387  98.8121 175.4162 0009531   1.8678 358.2533 14.22540528726741
HAIYANG-2A              
1 37781U 11043A   25111.16152633  .00000025  00000+0  68141-4 0  9992
2 37781  99.3340 115.7228 0001068  43.3780 316.7455 13.78811496688777
RASAT                   
1 37791U 11044D   25111.21760272  .00001223  00000+0  22358-3 0  9994
2 37791  98.0653 203.9936 0022174  89.9910 323.6241 14.67507869731302
SRMSAT                  
1 37841U 11058D   25111.03141388  .00000537  00000+0  14817-3 0  9994
2 37841  19.9711  94.3808 0011587 239.2677 149.6083 14.11414676698327
PLEIADES 1A             
1 38012U 11076F   25111.22658675  .00000775  00000+0  17644-3 0  9993
2 38012  98.1996 187.3155 0001401  83.1182 341.9283 14.58567485710491
ZIYUAN 1-02C (ZY 1-02C) 
1 38038U 11079A   25111.19488384  .00000871  00000+0  30418-3 0  9999
2 38038  98.4559 181.2255 0007591 124.8627 294.9112 14.37703246698615
ZIYUAN 3-1 (ZY 3-1)     
1 38046U 12001A   25111.20557134  .00025622  00000+0  44707-3 0  9993
2 38046  97.1997 175.7358 0005426 108.1331 252.0512 15.50672221738371
ARIRANG-3 (KOMPSAT-3)   
1 38338U 12025B   25111.20021928  .00001191  00000+0  24494-3 0  9996
2 38338  98.3020  64.4806 0006966 358.4298   1.6880 14.62420080689781
EXACTVIEW-1 (ADS-1B)    
1 38709U 12039C   25110.72566702  .00000285  00000+0  14195-3 0  9993
2 38709  98.9475 214.3964 0010022 312.7178  47.3156 14.24793051662549
SPOT 6                  
1 38755U 12047A   25111.16206482  .00000755  00000+0  17215-3 0  9996
2 38755  98.1802 179.8850 0001033  95.2875 264.8442 14.58565431671566
PLEIADES 1B             
1 39019U 12068A   25111.17973285  .00000778  00000+0  17720-3 0  9992
2 39019  98.1967 187.2319 0001312  91.3937 268.7412 14.58544510659337
GOKTURK 2               
1 39030U 12073A   25111.19777822  .00001027  00000+0  15995-3 0  9992
2 39030  97.7164 324.1544 0000843  88.0815 272.0492 14.74928861662324
LANDSAT 8               
1 39084U 13008A   25111.18799468  .00000760  00000+0  17855-3 0  9999
2 39084  98.1889 182.4520 0001115  99.5292 260.6033 14.57135137648268
SARAL                   
1 39086U 13009A   25110.95525924  .00000222  00000+0  97548-4 0  9991
2 39086  98.5544 297.9486 0003170  95.1680 264.9865 14.32685563635140
GAOFEN-1                
1 39150U 13018A   25111.20731126  .00001454  00000+0  21557-3 0  9999
2 39150  97.9517 185.6825 0017826 181.3736 178.7427 14.76493782646010
VNREDSAT 1              
1 39160U 13021B   25111.18091990  .00001280  00000+0  24831-3 0  9994
2 39160  97.9532 174.4585 0001507  89.4874 270.6502 14.64836356638525
ARIRANG-5 (KOMPSAT-5)   
1 39227U 13042A   25111.17034853  .00002833  00000+0  20653-3 0  9998
2 39227  97.6217 298.7680 0004372 121.2747 238.8908 15.04532413640463
SKYSAT-A                
1 39418U 13066C   25110.77780041  .00005263  00000+0  32933-3 0  9992
2 39418  97.4387 168.0045 0022093 334.6328  25.3815 15.09623675624688
